{
    "links": {
        "self": "http://www.neowsapp.com/rest/v1/neo/3612848?api_key=iIulBulltgU6a56xZRHN4H3l9WmuAYTsLGpBGhQ2"
    },
    "id": "3612848",
    "neo_reference_id": "3612848",
    "name": "(2012 UF34)",
    "designation": "2012 UF34",
    "nasa_jpl_url": "http://ssd.jpl.nasa.gov/sbdb.cgi?sstr=3612848",
    "absolute_magnitude_h": 24.8,
    "estimated_diameter": {
        "kilometers": {
            "estimated_diameter_min": 0.0291443905,
            "estimated_diameter_max": 0.0651688382
        },
        "meters": {
            "estimated_diameter_min": 29.1443904535,
            "estimated_diameter_max": 65.1688382168
        },
        "miles": {
            "estimated_diameter_min": 0.018109479,
            "estimated_diameter_max": 0.0404940262
        },
        "feet": {
            "estimated_diameter_min": 95.6180819754,
            "estimated_diameter_max": 213.8085311752
        }
    },
    "is_potentially_hazardous_asteroid": false,
    "close_approach_data": [
        {
            "close_approach_date": "1923-10-31",
            "close_approach_date_full": "1923-Oct-31 12:11",
            "epoch_date_close_approach": -1457005740000,
            "relative_velocity": {
                "kilometers_per_second": "9.4745861569",
                "kilometers_per_hour": "34108.510164688",
                "miles_per_hour": "21193.7017742752"
            },
            "miss_distance": {
                "astronomical": "1.972682454",
                "lunar": "767.373474606",
                "kilometers": "295109093.30477298",
                "miles": "183372287.493627924"
            },
            "orbiting_body": "Juptr"
        },
        {
            "close_approach_date": "1926-12-31",
            "close_approach_date_full": "1926-Dec-31 11:56",
            "epoch_date_close_approach": -1357041840000,
            "relative_velocity": {
                "kilometers_per_second": "16.1116087568",
                "kilometers_per_hour": "58001.791524543",
                "miles_per_hour": "36040.0576281251"
            },
            "miss_distance": {
                "astronomical": "0.219063137",
                "lunar": "85.215560293",
                "kilometers": "32771378.69071819",
                "miles": "20363190.464723422"
            },
            "orbiting_body": "Earth"
        },
        {
            "close_approach_date": "2012-10-22",
            "close_approach_date_full": "2012-Oct-22 05:21",
            "epoch_date_close_approach": 1350883260000,
            "relative_velocity": {
                "kilometers_per_second": "10.9865804082",
                "kilometers_per_hour": "39551.6894693904",
                "miles_per_hour": "24575.8817150221"
            },
            "miss_distance": {
                "astronomical": "0.007219278",
                "lunar": "2.808299142",
                "kilometers": "1079988.61173786",
                "miles": "671073.805228068"
            },
            "orbiting_body": "Moon"
        },
        {
            "close_approach_date": "2012-10-22",
            "close_approach_date_full": "2012-Oct-22 10:58",
            "epoch_date_close_approach": 1350903480000,
            "relative_velocity": {
                "kilometers_per_second": "10.3188578457",
                "kilometers_per_hour": "37147.8882443443",
                "miles_per_hour": "23082.2531149372"
            },
            "miss_distance": {
                "astronomical": "0.007194484",
                "lunar": "2.798654276",
                "kilometers": "1076279.48214908",
                "miles": "668769.058974104"
            },
            "orbiting_body": "Earth"
        }
    ],
    "orbital_data": {
        "orbit_id": "6",
        "orbit_determination_date": "2017-04-06 08:48:23",
        "first_observation_date": "2012-10-17",
        "last_observation_date": "2012-10-21",
        "data_arc_in_days": 4,
        "observations_used": 117,
        "orbit_uncertainty": "7",
        "minimum_orbit_intersection": ".0126499",
        "jupiter_tisserand_invariant": "2.945",
        "epoch_osculation": "2459000.5",
        "eccentricity": ".6575252746221248",
        "semi_major_axis": "2.833004085881528",
        "inclination": "4.702878346208577",
        "ascending_node_longitude": "24.67883239930211",
        "orbital_period": "1741.683462536273",
        "perihelion_distance": ".9702322963066744",
        "perihelion_argument": "29.99584297996175",
        "aphelion_distance": "4.695775875456381",
        "perihelion_time": "2459718.652560052663",
        "mean_anomaly": "211.5603281652138",
        "mean_motion": ".2066965713022049",
        "equinox": "J2000",
        "orbit_class": {
            "orbit_class_type": "APO",
            "orbit_class_description": "Near-Earth asteroid orbits which cross the Earth’s orbit similar to that of 1862 Apollo",
            "orbit_class_range": "a (semi-major axis) > 1.0 AU; q (perihelion) < 1.017 AU"
        }
    },
    "is_sentry_object": false
}